LEMUR-2-FURIAUS         
1 42840U 17042R   26068.96143223  .00025928  00000+0  99966-3 0  9991
2 42840  97.3753 248.4990 0007537  55.8686 304.3266 15.26272951473053
STARLINK-31226          
1 58858U 24019F   26068.90424495  .00001265  00000+0  55509-4 0  9990
2 58858  43.0009 247.8462 0001671 270.2377  89.8283 15.27576188119119
